{
  "norad_id": 60422,
  "name": "ASBM-1",
  "history": [
    {
      "epoch": "2026-03-22T09:52:44.967648Z",
      "apogee_km": 43736.13821625606,
      "perigee_km": 7858.385221917325,
      "latitude_deg": 5.205487801917657e-05,
      "longitude_deg": 80.70050430246025,
      "height_km": 15987.77185339235,
      "semi_major_axis_km": 32175.398719086694,
      "eccentricity": 0.55753393,
      "inclination_deg": 62.7942,
      "raan_deg": 48.8715,
      "arg_perigee_deg": 269.1431,
      "mean_anomaly_deg": 30.169,
      "mean_motion_rev_day": 1.50423904
    },
    {
      "epoch": "2026-03-29T01:25:33.400704Z",
      "apogee_km": 43744.97010168446,
      "perigee_km": 7849.467492164037,
      "latitude_deg": 0.00016517157303080343,
      "longitude_deg": -159.31150047444746,
      "height_km": 15971.906755299351,
      "semi_major_axis_km": 32175.35579692425,
      "eccentricity": 0.5578105,
      "inclination_deg": 62.7993,
      "raan_deg": 48.6139,
      "arg_perigee_deg": 269.1541,
      "mean_anomaly_deg": 30.1274,
      "mean_motion_rev_day": 1.50424205
    }
  ]
}